[{"OBJECT_NAME":"IRIDIUM 149","OBJECT_ID":"2018-030B","EPOCH":"2026-03-09T19:36:11.240064","MEAN_MOTION":14.34219768,"ECCENTRICITY":0.00021302,"INCLINATION":86.4008,"RA_OF_ASC_NODE":331.9304,"ARG_OF_PERICENTER":82.8556,"MEAN_ANOMALY":277.2882,"EPHEMERIS_TYPE":0,"CLASSIFICATION_TYPE":"U","NORAD_CAT_ID":43250,"ELEMENT_SET_NO":999,"REV_AT_EPOCH":41591,"BSTAR":0.00012927416,"MEAN_MOTION_DOT":3.82e-6,"MEAN_MOTION_DDOT":0},{"OBJECT_NAME":"COSMOS 2251 DEB","OBJECT_ID":"1993-036AJR","EPOCH":"2026-03-09T03:30:14.190912","MEAN_MOTION":14.36458075,"ECCENTRICITY":0.00184489,"INCLINATION":74.0288,"RA_OF_ASC_NODE":117.3549,"ARG_OF_PERICENTER":201.5427,"MEAN_ANOMALY":189.6433,"EPHEMERIS_TYPE":0,"CLASSIFICATION_TYPE":"U","NORAD_CAT_ID":35287,"ELEMENT_SET_NO":999,"REV_AT_EPOCH":88133,"BSTAR":0.00013223582,"MEAN_MOTION_DOT":3.62e-6,"MEAN_MOTION_DDOT":0}]
